NORAD_CAT_ID,OBJECT_NAME,OBJECT_TYPE,EPOCH,MEAN_MOTION,ECCENTRICITY,INCLINATION,RA_OF_ASC_NODE,ARG_OF_PERICENTER,MEAN_ANOMALY,BSTAR,MEAN_MOTION_DOT,MEAN_MOTION_DDOT,TLE_LINE0,TLE_LINE1,TLE_LINE2,SEMIMAJOR_AXIS,PERIOD,APOGEE,PERIGEE,DECAYED
53736.0,STARLINK-4652,PAYLOAD,2023-07-06 19:10:53,15.08844598,8.65e-05,53.2175,319.7414,83.3909,276.7182,0.00014103,1.958e-05,0.0,0 STARLINK-4652,1 53736U 22107AN  23187.79922985  .00001958  00000-0  14103-3 0  9993,2 53736  53.2175 319.7414 0000865  83.3909 276.7182 15.08844598 46475,6917.866,95.437,540.33,539.133,0.0
53736.0,STARLINK-4652,PAYLOAD,2023-07-07 09:29:22,15.08838711,8.05e-05,53.2178,317.0643,73.5863,286.5217,6.6069e-05,7.64e-06,0.0,0 STARLINK-4652,1 53736U 22107AN  23188.39539706  .00000764  00000-0  66069-4 0  9998,2 53736  53.2178 317.0643 0000805  73.5863 286.5217 15.08838711 46565,6917.884,95.438,540.306,539.192,0.0
53736.0,STARLINK-4652,PAYLOAD,2023-07-07 17:26:17,15.08850819,8.83e-05,53.2187,315.5797,94.1676,265.9417,0.00011836,1.597e-05,0.0,0 STARLINK-4652,1 53736U 22107AN  23188.72658742  .00001597  00000-0  11836-3 0  9993,2 53736  53.2187 315.5797 0000883  94.1676 265.9417 15.08850819 46617,6917.847,95.437,540.323,539.101,0.0
53736.0,STARLINK-4652,PAYLOAD,2023-07-08 01:23:13,15.08845557,7.47e-05,53.2173,314.0924,91.1856,268.9222,7.4626e-05,9e-06,0.0,0 STARLINK-4652,1 53736U 22107AN  23189.05779070  .00000900  00000-0  74626-4 0  9992,2 53736  53.2173 314.0924 0000747  91.1856 268.9222 15.08845557 46669,6917.863,95.437,540.245,539.212,0.0
53736.0,STARLINK-4652,PAYLOAD,2023-07-08 09:20:09,15.0883758,8.2e-05,53.2177,312.6053,94.5132,265.5954,6.0845e-05,6.81e-06,0.0,0 STARLINK-4652,1 53736U 22107AN  23189.38899737  .00000681  00000-0  60845-4 0  9995,2 53736  53.2177 312.6053 0000820  94.5132 265.5954 15.08837580 46714,6917.888,95.438,540.32,539.186,0.0
53736.0,STARLINK-4652,PAYLOAD,2023-07-08 15:41:41,15.088456,8.17e-05,53.2181,311.4154,87.0071,273.1015,7.0335e-05,8.32e-06,0.0,0 STARLINK-4652,1 53736U 22107AN  23189.65395146  .00000832  00000-0  70335-4 0  9993,2 53736  53.2181 311.4154 0000817  87.0071 273.1015 15.08845600 46752,6917.863,95.437,540.293,539.163,0.0
53736.0,STARLINK-4652,PAYLOAD,2023-07-09 01:14:00,15.08841234,9.51e-05,53.2189,309.6314,83.023,277.0871,6.7025e-06,-1.81e-06,0.0,0 STARLINK-4652,1 53736U 22107AN  23190.05139584 -.00000181  00000-0  67025-5 0  9992,2 53736  53.2189 309.6314 0000951  83.0230 277.0871 15.08841234 46818,6917.877,95.437,540.4,539.084,0.0
53736.0,STARLINK-4652,PAYLOAD,2023-07-09 12:21:43,15.08833546,0.0001001,53.2191,307.5505,87.5554,272.5553,3.5837e-06,-2.31e-06,0.0,0 STARLINK-4652,1 53736U 22107AN  23190.51508226 -.00000231  00000-0  35837-5 0  9998,2 53736  53.2191 307.5505 0001001  87.5554 272.5553 15.08833546 46886,6917.9,95.438,540.458,539.073,0.0
53736.0,STARLINK-4652,PAYLOAD,2023-07-10 01:04:47,15.08840652,8.89e-05,53.2187,305.1715,82.5769,277.5324,2.3094e-05,8e-07,0.0,0 STARLINK-4652,1 53736U 22107AN  23191.04499716  .00000080  00000-0  23094-4 0  9992,2 53736  53.2187 305.1715 0000889  82.5769 277.5324 15.08840652 46960,6917.878,95.438,540.358,539.128,0.0
53736.0,STARLINK-4652,PAYLOAD,2023-07-11 07:17:07,15.0883488,8.73e-05,53.2176,299.5223,86.2358,273.8734,0.00010086,1.318e-05,0.0,0 STARLINK-4652,1 53736U 22107AN  23192.30355797  .00001318  00000-0  10086-3 0  9993,2 53736  53.2176 299.5223 0000873  86.2358 273.8734 15.08834880 47158,6917.896,95.438,540.365,539.157,0.0
53736.0,STARLINK-4652,PAYLOAD,2023-07-12 13:29:27,15.08835098,9.18e-05,53.2182,293.8731,85.9909,274.1188,7.7025e-05,9.38e-06,0.0,0 STARLINK-4652,1 53736U 22107AN  23193.56212131  .00000938  00000-0  77025-4 0  9990,2 53736  53.2182 293.8731 0000918  85.9909 274.1188 15.08835098 47344,6917.895,95.438,540.395,539.125,0.0
53736.0,STARLINK-4652,PAYLOAD,2023-07-14 10:00:15,15.08838421,8.71e-05,53.2181,285.546,99.1464,260.9627,7.8669e-05,9.64e-06,0.0,0 STARLINK-4652,1 53736U 22107AN  23195.41684116  .00000964  00000-0  78669-4 0  9996,2 53736  53.2181 285.5460 0000871  99.1464 260.9627 15.08838421 47626,6917.885,95.438,540.353,539.148,0.0
53736.0,STARLINK-4652,PAYLOAD,2023-07-15 11:26:25,15.08836319,0.0001209,53.2193,280.789,107.5356,252.5769,1.5633e-05,-3.9e-07,0.0,0 STARLINK-4652,1 53736U 22107AN  23196.47668564 -.00000039  00000-0  15633-4 0  9998,2 53736  53.2193 280.7890 0001209 107.5356 252.5769 15.08836319 47788,6917.892,95.438,540.593,538.92,0.0
53736.0,STARLINK-4652,PAYLOAD,2023-07-16 12:52:36,15.0883669,0.0001214,53.2187,276.0306,99.2911,260.8219,-1.386e-05,-5.08e-06,0.0,0 STARLINK-4652,1 53736U 22107AN  23197.53652957 -.00000508  00000-0 -13860-4 0  9997,2 53736  53.2187 276.0306 0001214  99.2911 260.8219 15.08836690 47943,6917.891,95.438,540.595,538.916,0.0
53736.0,STARLINK-4652,PAYLOAD,2023-07-17 11:07:59,15.0884575,0.0001043,53.2171,271.8664,89.6221,270.489,0.00010408,1.369e-05,0.0,0 STARLINK-4652,1 53736U 22107AN  23198.46388140  .00001369  00000-0  10408-3 0  9998,2 53736  53.2171 271.8664 0001043  89.6221 270.4890 15.08845750 48088,6917.863,95.437,540.449,539.006,0.0
53736.0,STARLINK-4652,PAYLOAD,2023-07-18 10:58:46,15.08844162,0.0001004,53.2163,267.4055,89.4805,270.6302,0.00011072,1.475e-05,0.0,0 STARLINK-4652,1 53736U 22107AN  23199.45748171  .00001475  00000-0  11072-3 0  9998,2 53736  53.2163 267.4055 0001004  89.4805 270.6302 15.08844162 48230,6917.868,95.437,540.427,539.038,0.0
53736.0,STARLINK-4652,PAYLOAD,2023-07-19 09:14:11,15.08819982,0.0001129,53.2177,263.2434,99.1235,260.9885,0.00018766,2.698e-05,0.0,0 STARLINK-4652,1 53736U 22107AN  23200.38485637  .00002698  00000-0  18766-3 0  9993,2 53736  53.2177 263.2434 0001129  99.1235 260.9885 15.08819982 48378,6917.942,95.439,540.588,539.026,0.0
53736.0,STARLINK-4652,PAYLOAD,2023-07-19 10:49:34,15.08835854,0.000128,53.2179,262.9463,100.6119,259.5018,-4.934e-05,-1.073e-05,0.0,0 STARLINK-4652,1 53736U 22107AN  23200.45109210 -.00001073  00000-0 -49340-4 0  9992,2 53736  53.2179 262.9463 0001280 100.6119 259.5018 15.08835854 48384,6917.893,95.438,540.644,538.873,0.0
53736.0,STARLINK-4652,PAYLOAD,2023-07-20 13:51:07,15.08839786,0.0001149,53.2165,257.8899,97.3407,262.7715,2.0291e-05,3.5e-07,0.0,0 STARLINK-4652,1 53736U 22107AN  23201.57716861  .00000035  00000-0  20291-4 0  9991,2 53736  53.2165 257.8899 0001149  97.3407 262.7715 15.08839786 48558,6917.881,95.438,540.541,538.951,0.0
53736.0,STARLINK-4652,PAYLOAD,2023-07-21 12:06:30,15.08845268,0.000111,53.2166,253.7272,87.7555,272.3565,0.00015082,2.114e-05,0.0,0 STARLINK-4652,1 53736U 22107AN  23202.50452095  .00002114  00000-0  15082-3 0  9992,2 53736  53.2166 253.7272 0001110  87.7555 272.3565 15.08845268 48691,6917.864,95.437,540.497,538.961,0.0
53736.0,STARLINK-4652,PAYLOAD,2023-07-24 02:06:33,15.08835627,0.0001063,53.2161,242.1293,94.399,265.7124,7.7727e-05,9.49e-06,0.0,0 STARLINK-4652,1 53736U 22107AN  23205.08789316  .00000949  00000-0  77727-4 0  9996,2 53736  53.2161 242.1293 0001063  94.3990 265.7124 15.08835627 49714,6917.894,95.438,540.494,539.023,0.0
53736.0,STARLINK-4652,PAYLOAD,2023-07-25 09:54:16,15.08840662,0.0001038,53.2156,236.1816,83.2511,276.8599,3.5377e-05,2.75e-06,0.0,0 STARLINK-4652,1 53736U 22107AN  23206.41269441  .00000275  00000-0  35377-4 0  9993,2 53736  53.2156 236.1816 0001038  83.2511 276.8599 15.08840662 49916,6917.878,95.438,540.461,539.025,0.0
53736.0,STARLINK-4652,PAYLOAD,2023-07-26 01:48:08,15.08840504,9.83e-05,53.2154,233.2069,85.6246,274.4858,6.1949e-05,6.98e-06,0.0,0 STARLINK-4652,1 53736U 22107AN  23207.07509306  .00000698  00000-0  61949-4 0  9996,2 53736  53.2154 233.2069 0000983  85.6246 274.4858 15.08840504 50011,6917.879,95.438,540.424,539.064,0.0
53736.0,STARLINK-4652,PAYLOAD,2023-07-26 06:34:17,15.08843792,0.0001045,53.2155,232.3158,78.824,281.2869,8.7774e-05,1.11e-05,0.0,0 STARLINK-4652,1 53736U 22107AN  23207.27381027  .00001110  00000-0  87774-4 0  9990,2 53736  53.2155 232.3158 0001045  78.8240 281.2869 15.08843792 49411,6917.869,95.437,540.457,539.011,0.0
53736.0,STARLINK-4652,PAYLOAD,2023-07-26 08:09:40,15.08845207,0.0001066,53.2153,232.0183,79.2984,280.8128,9.7355e-05,1.262e-05,0.0,0 STARLINK-4652,1 53736U 22107AN  23207.34004897  .00001262  00000-0  97355-4 0  9999,2 53736  53.2153 232.0183 0001066  79.2984 280.8128 15.08845207 50055,6917.864,95.437,540.467,538.992,0.0
53736.0,STARLINK-4652,PAYLOAD,2023-07-27 08:00:27,15.08843581,0.0001051,53.2151,227.5574,81.89,278.2211,5.8192e-05,6.39e-06,0.0,0 STARLINK-4652,1 53736U 22107AN  23208.33364862  .00000639  00000-0  58192-4 0  9993,2 53736  53.2151 227.5574 0001051  81.8900 278.2211 15.08843581 49579,6917.869,95.437,540.462,539.007,0.0
53736.0,STARLINK-4652,PAYLOAD,2023-07-28 01:29:42,15.08837135,9.66e-05,53.2141,224.286,84.2768,275.8334,-3.7851e-05,-8.9e-06,0.0,0 STARLINK-4652,1 53736U 22107AN  23209.06229522 -.00000890  00000-0 -37851-4 0  9997,2 53736  53.2141 224.2860 0000966  84.2768 275.8334 15.08837135 49682,6917.889,95.438,540.422,539.086,0.0
53736.0,STARLINK-4652,PAYLOAD,2023-07-28 11:02:01,15.08839565,9.12e-05,53.2163,222.501,102.9908,257.1186,-6.3961e-05,-1.305e-05,0.0,0 STARLINK-4652,1 53736U 22107AN  23209.45973409 -.00001305  00000-0 -63961-4 0  9993,2 53736  53.2163 222.5010 0000912 102.9908 257.1186 15.08839565 50374,6917.882,95.438,540.378,539.116,0.0
53736.0,STARLINK-4652,PAYLOAD,2023-07-29 06:06:38,15.08838164,9.34e-05,53.2159,218.9332,83.4397,276.6701,1.4171e-05,-6.2e-07,0.0,0 STARLINK-4652,1 53736U 22107AN  23210.25461498 -.00000062  00000-0  14171-4 0  9990,2 53736  53.2159 218.9332 0000934  83.4397 276.6701 15.08838164 49869,6917.886,95.438,540.397,539.105,0.0
53736.0,STARLINK-4652,PAYLOAD,2023-07-30 01:11:16,15.08832409,0.0001178,53.2162,215.3643,96.6373,263.4753,4.9515e-05,5e-06,0.0,0 STARLINK-4652,1 53736U 22107AN  23211.04950056  .00000500  00000-0  49515-4 0  9997,2 53736  53.2162 215.3643 0001178  96.6373 263.4753 15.08832409 49980,6917.904,95.438,540.584,538.954,0.0
